[{"OBJECT_NAME":"STARLINK-31716","OBJECT_ID":"2024-062D","EPOCH":"2026-03-09T16:07:16.130208","MEAN_MOTION":15.30192908,"ECCENTRICITY":9.294e-5,"INCLINATION":53.1595,"RA_OF_ASC_NODE":207.098,"ARG_OF_PERICENTER":87.9131,"MEAN_ANOMALY":272.1976,"EPHEMERIS_TYPE":0,"CLASSIFICATION_TYPE":"U","NORAD_CAT_ID":59377,"ELEMENT_SET_NO":999,"REV_AT_EPOCH":11030,"BSTAR":5.134487e-6,"MEAN_MOTION_DOT":-2.07e-6,"MEAN_MOTION_DDOT":0},{"OBJECT_NAME":"KUIPER-00175","OBJECT_ID":"2025-301C","EPOCH":"2026-03-09T23:30:37.840032","MEAN_MOTION":15.30996371,"ECCENTRICITY":0.00022792,"INCLINATION":51.8781,"RA_OF_ASC_NODE":63.6978,"ARG_OF_PERICENTER":50.5695,"MEAN_ANOMALY":309.549,"EPHEMERIS_TYPE":0,"CLASSIFICATION_TYPE":"U","NORAD_CAT_ID":67135,"ELEMENT_SET_NO":999,"REV_AT_EPOCH":1385,"BSTAR":0.00066732304,"MEAN_MOTION_DOT":0.00019968,"MEAN_MOTION_DDOT":0}]
